OBJECT_NAME,OBJECT_ID,EPOCH,MEAN_MOTION,ECCENTRICITY,INCLINATION,RA_OF_ASC_NODE,ARG_OF_PERICENTER,MEAN_ANOMALY,EPHEMERIS_TYPE,CLASSIFICATION_TYPE,NORAD_CAT_ID,ELEMENT_SET_NO,REV_AT_EPOCH,BSTAR,MEAN_MOTION_DOT,MEAN_MOTION_DDOT
IPERDRONE.0,2024-149BE,2026-06-24T04:51:53.883936,15.67594868,.00041463,97.3775,268.7649,208.4723,151.6312,0,U,60520,999,10401,.64161057E-3,.70155E-3,0
TRANSPORTER-11 OBJECT BF,2024-149BF,2026-06-23T05:58:32.088864,15.87556925,.00067039,97.3741,270.6699,228.1639,131.9061,0,U,60521,999,10404,.95543444E-3,.259315E-2,0
CONNECTA IOT-2,2024-149BG,2026-06-24T04:56:02.143104,15.24024455,.00050086,97.3839,253.2448,307.7908,52.2875,0,U,60522,999,10296,.15345331E-3,.3649E-4,0
CONNECTA IOT-4,2024-149BJ,2026-06-24T05:09:03.570624,15.42367378,.00043101,97.3798,259.6684,251.6792,108.3987,0,U,60524,999,10341,.41194001E-3,.17711E-3,0
ORESAT0.5,2024-149BK,2026-06-24T04:14:50.138016,15.45308530,.00044656,97.3720,261.2848,240.1680,119.9125,0,U,60525,999,10355,.37457619E-3,.17779E-3,0
DEIMOS,2024-149BL,2026-06-24T05:06:50.164704,15.44439271,.00043331,97.3780,261.4583,248.1283,111.9505,0,U,60526,999,10353,.36307657E-3,.16725E-3,0
CUAVA-2,2024-149BM,2026-06-24T04:23:54.093408,15.36253923,.00052487,97.3726,256.7145,262.2829,97.7819,0,U,60527,999,10324,.30865431E-3,.10833E-3,0
ERNST,2024-149BN,2026-06-24T04:34:27.786432,15.39364127,.00044547,97.3805,258.9631,264.1515,95.9223,0,U,60528,999,10335,.31417293E-3,.12201E-3,0
TORO,2024-149BQ,2026-06-24T04:39:16.561152,14.96442592,.00011326,97.6782,249.7312,85.2891,274.8460,0,U,60530,999,10100,.10896394E-3,.1179E-4,0
HYPSO-2,2024-149BR,2026-06-24T05:03:22.340736,14.98815348,.00005925,97.6810,251.3683,125.6446,234.4832,0,U,60531,999,10110,.1795388E-3,.2106E-4,0
LEMU NGE,2024-149BS,2026-06-24T05:06:52.643520,14.94977024,.00016534,97.6841,250.0307,59.4861,300.6523,0,U,60532,999,10100,.1862487E-3,.1979E-4,0
LEMUR-2-STELLA,2024-149BT,2026-06-24T03:55:32.189664,15.11934480,.00014843,97.6735,257.6491,95.7079,264.4320,0,U,60533,999,10155,.575769E-3,.9808E-4,0
SATELIOT_2,2024-149BU,2026-06-24T04:21:11.181888,14.96384755,.0001909,97.6831,250.0100,84.3539,275.7900,0,U,60534,999,10101,.10263071E-3,.1105E-4,0
NIGHTJAR,2024-149BV,2026-06-24T04:49:31.672992,14.99045098,.00007999,97.6831,251.8100,101.9367,258.1946,0,U,60535,999,14392,.20022524E-3,.237E-4,0
LEMUR-2-MARHISYAM,2024-149BW,2026-06-24T05:06:11.675232,15.11376723,.00034587,97.6882,258.1549,104.9077,255.2536,0,U,60536,999,10154,.50589079E-3,.8476E-4,0
SATELIOT_4,2024-149BX,2026-06-24T04:34:43.770432,14.96686530,.00025687,97.6734,249.5421,42.0687,318.0732,0,U,60537,999,10102,.96264907E-4,.1042E-4,0
PICO-02A021,2024-149BY,2026-06-23T22:56:23.945280,15.03310536,.00044912,97.6764,253.7292,12.3695,347.7640,0,U,60538,999,10075,.32416919E-3,.4338E-4,0
ICEYE-X43,2024-149BZ,2026-06-24T04:02:10.311360,14.99661997,.0008211,97.6805,252.0374,64.6464,295.5609,0,U,60539,999,10116,.28978783E-3,.3515E-4,0
HAWK-10A,2024-149CA,2026-06-24T04:33:56.011104,14.96531916,.0004514,97.6894,250.9815,60.3953,299.7718,0,U,60540,999,10103,.70287258E-4,.742E-5,0
UMBRA-09,2024-149CB,2026-06-23T12:38:44.213568,15.18194812,.00011025,97.6963,261.8412,242.7564,117.3557,0,U,60541,999,10168,.58677451E-3,.11937E-3,0
QPS-SAR-8 (AMATERU-IV),2024-149CC,2026-06-24T04:17:19.049280,15.04184980,.00042517,97.6652,254.2694,93.3153,266.8559,0,U,60542,999,10132,.34849605E-3,.4779E-4,0
ARCTIC WEATHER SATELLITE,2024-149CD,2026-06-24T04:56:39.367680,14.89791797,.0003678,97.6800,245.4711,90.8984,269.2655,0,U,60543,999,10034,.82568705E-4,.738E-5,0
CAPELLA-15 (ACADIA-5),2024-149CE,2026-06-23T14:59:59.669088,14.92406896,.0004379,97.6741,247.3640,51.7083,308.4530,0,U,60544,999,10081,.32949879E-3,.332E-4,0
HAWK-10B,2024-149CF,2026-06-24T04:33:43.479648,14.96530787,.00065797,97.6813,250.3295,73.8399,286.3546,0,U,60545,999,10103,.74138293E-4,.786E-5,0
ICEYE-X39,2024-149CG,2026-06-24T05:09:50.671584,14.99930590,.0006054,97.6759,252.1430,100.8405,259.3500,0,U,60546,999,10117,.22557476E-3,.2742E-4,0
UMBRA-10,2024-149CH,2026-06-24T04:27:10.783872,15.18220171,.00003092,97.6977,262.5396,140.4452,219.6804,0,U,60547,999,10179,.72933953E-3,.14871E-3,0
ICEYE-X33,2024-149CJ,2026-06-24T04:03:50.408352,15.00917106,.00019605,97.7301,254.2722,83.0266,277.1181,0,U,60548,999,10125,.31601235E-3,.3965E-4,0
ICEYE-X40,2024-149CK,2026-06-24T05:59:34.319328,14.97962684,.00060487,97.6817,251.6325,61.3425,298.8405,0,U,60549,999,10113,.85648814E-4,.952E-5,0
SATELIOT_1,2024-149CL,2026-06-24T04:09:48.868992,14.98098039,.00081981,97.6760,250.9557,59.5593,300.6438,0,U,60550,999,10111,.15036695E-3,.1722E-4,0
BRO-14,2024-149CM,2026-06-24T03:36:58.116096,14.96189607,.00081335,97.6871,250.8032,79.1431,281.0705,0,U,60551,999,10103,.12409103E-3,.1342E-4,0
