IPERDRONE.0             
1 60520U 24149BE  26175.20270699  .00070155  00000+0  64161-3 0  9997
2 60520  97.3775 268.7649 0004146 208.4723 151.6312 15.67594868104010
TRANSPORTER-11 OBJECT BF
1 60521U 24149BF  26174.24898251  .00259315  00000+0  95543-3 0  9996
2 60521  97.3741 270.6699 0006703 228.1639 131.9061 15.87556925104046
CONNECTA IOT-2          
1 60522U 24149BG  26175.20558036  .00003649  00000+0  15345-3 0  9997
2 60522  97.3839 253.2448 0005008 307.7908  52.2875 15.24024455102960
CONNECTA IOT-4          
1 60524U 24149BJ  26175.21462466  .00017711  00000+0  41194-3 0  9997
2 60524  97.3798 259.6684 0004310 251.6792 108.3987 15.42367378103413
ORESAT0.5               
1 60525U 24149BK  26175.17696919  .00017779  00000+0  37458-3 0  9997
2 60525  97.3720 261.2848 0004465 240.1680 119.9125 15.45308530103555
DEIMOS                  
1 60526U 24149BL  26175.21308061  .00016725  00000+0  36308-3 0  9994
2 60526  97.3780 261.4583 0004333 248.1283 111.9505 15.44439271103539
CUAVA-2                 
1 60527U 24149BM  26175.18326497  .00010833  00000+0  30865-3 0  9990
2 60527  97.3726 256.7145 0005248 262.2829  97.7819 15.36253923103246
ERNST                   
1 60528U 24149BN  26175.19059938  .00012201  00000+0  31417-3 0  9990
2 60528  97.3805 258.9631 0004454 264.1515  95.9223 15.39364127103353
TORO                    
1 60530U 24149BQ  26175.19394168  .00001179  00000+0  10896-3 0  9990
2 60530  97.6782 249.7312 0001132  85.2891 274.8460 14.96442592101002
HYPSO-2                 
1 60531U 24149BR  26175.21067524  .00002106  00000+0  17954-3 0  9990
2 60531  97.6810 251.3683 0000592 125.6446 234.4832 14.98815348101100
LEMU NGE                
1 60532U 24149BS  26175.21310930  .00001979  00000+0  18625-3 0  9996
2 60532  97.6841 250.0307 0001653  59.4861 300.6523 14.94977024101006
LEMUR-2-STELLA          
1 60533U 24149BT  26175.16356701  .00009808  00000+0  57577-3 0  9995
2 60533  97.6735 257.6491 0001484  95.7079 264.4320 15.11934480101553
SATELIOT_2              
1 60534U 24149BU  26175.18137942  .00001105  00000+0  10263-3 0  9995
2 60534  97.6831 250.0100 0001909  84.3539 275.7900 14.96384755101018
NIGHTJAR                
1 60535U 24149BV  26175.20106103  .00002370  00000+0  20023-3 0  9994
2 60535  97.6831 251.8100 0000799 101.9367 258.1946 14.99045098143927
LEMUR-2-MARHISYAM       
1 60536U 24149BW  26175.21263513  .00008476  00000+0  50589-3 0  9998
2 60536  97.6882 258.1549 0003458 104.9077 255.2536 15.11376723101549
SATELIOT_4              
1 60537U 24149BX  26175.19078438  .00001042  00000+0  96265-4 0  9990
2 60537  97.6734 249.5421 0002568  42.0687 318.0732 14.96686530101020
PICO-02A021             
1 60538U 24149BY  26174.95583270  .00004338  00000+0  32417-3 0  9998
2 60538  97.6764 253.7292 0004491  12.3695 347.7640 15.03310536100758
ICEYE-X43               
1 60539U 24149BZ  26175.16817490  .00003515  00000+0  28979-3 0  9991
2 60539  97.6805 252.0374 0008211  64.6464 295.5609 14.99661997101161
HAWK-10A                
1 60540U 24149CA  26175.19023161  .00000742  00000+0  70287-4 0  9999
2 60540  97.6894 250.9815 0004514  60.3953 299.7718 14.96531916101033
UMBRA-09                
1 60541U 24149CB  26174.52690062  .00011937  00000+0  58677-3 0  9992
2 60541  97.6963 261.8412 0001102 242.7564 117.3557 15.18194812101681
QPS-SAR-8 (AMATERU-IV)  
1 60542U 24149CC  26175.17869270  .00004779  00000+0  34850-3 0  9997
2 60542  97.6652 254.2694 0004251  93.3153 266.8559 15.04184980101320
ARCTIC WEATHER SATELLITE
1 60543U 24149CD  26175.20601120  .00000738  00000+0  82569-4 0  9992
2 60543  97.6800 245.4711 0003678  90.8984 269.2655 14.89791797100341
CAPELLA-15 (ACADIA-5)   
1 60544U 24149CE  26174.62499617  .00003320  00000+0  32950-3 0  9992
2 60544  97.6741 247.3640 0004379  51.7083 308.4530 14.92406896100810
HAWK-10B                
1 60545U 24149CF  26175.19008657  .00000786  00000+0  74138-4 0  9994
2 60545  97.6813 250.3295 0006579  73.8399 286.3546 14.96530787101037
ICEYE-X39               
1 60546U 24149CG  26175.21516981  .00002742  00000+0  22557-3 0  9993
2 60546  97.6759 252.1430 0006054 100.8405 259.3500 14.99930590101179
UMBRA-10                
1 60547U 24149CH  26175.18554148  .00014871  00000+0  72934-3 0  9997
2 60547  97.6977 262.5396 0000309 140.4452 219.6804 15.18220171101790
ICEYE-X33               
1 60548U 24149CJ  26175.16933343  .00003965  00000+0  31601-3 0  9992
2 60548  97.7301 254.2722 0001960  83.0266 277.1181 15.00917106101253
ICEYE-X40               
1 60549U 24149CK  26175.24970277  .00000952  00000+0  85649-4 0  9994
2 60549  97.6817 251.6325 0006048  61.3425 298.8405 14.97962684101135
SATELIOT_1              
1 60550U 24149CL  26175.17348228  .00001722  00000+0  15037-3 0  9992
2 60550  97.6760 250.9557 0008198  59.5593 300.6438 14.98098039101117
BRO-14                  
1 60551U 24149CM  26175.15067264  .00001342  00000+0  12409-3 0  9997
2 60551  97.6871 250.8032 0008133  79.1431 281.0705 14.96189607101036
